[{"OBJECT_NAME":"STARLINK-36396","OBJECT_ID":"2026-012B","EPOCH":"2026-03-09T01:21:07.493472","MEAN_MOTION":15.27601176,"ECCENTRICITY":0.00014579,"INCLINATION":42.9987,"RA_OF_ASC_NODE":318.1145,"ARG_OF_PERICENTER":44.7291,"MEAN_ANOMALY":315.3678,"EPHEMERIS_TYPE":0,"CLASSIFICATION_TYPE":"U","NORAD_CAT_ID":67494,"ELEMENT_SET_NO":999,"REV_AT_EPOCH":766,"BSTAR":0.0011705378,"MEAN_MOTION_DOT":0.0003211,"MEAN_MOTION_DDOT":0},{"OBJECT_NAME":"COSMOS 1758","OBJECT_ID":"1986-046A","EPOCH":"2026-03-09T22:23:33.220896","MEAN_MOTION":15.25706639,"ECCENTRICITY":0.00131526,"INCLINATION":82.4607,"RA_OF_ASC_NODE":143.3203,"ARG_OF_PERICENTER":337.3781,"MEAN_ANOMALY":22.6875,"EPHEMERIS_TYPE":0,"CLASSIFICATION_TYPE":"U","NORAD_CAT_ID":16791,"ELEMENT_SET_NO":999,"REV_AT_EPOCH":16610,"BSTAR":0.00027304427,"MEAN_MOTION_DOT":7.006e-5,"MEAN_MOTION_DDOT":0}]
